[{"OBJECT_NAME":"FENGYUN 1C DEB","OBJECT_ID":"1999-025CHC","EPOCH":"2026-03-07T08:36:08.491968","MEAN_MOTION":13.66576773,"ECCENTRICITY":0.02284899,"INCLINATION":99.5589,"RA_OF_ASC_NODE":120.2951,"ARG_OF_PERICENTER":358.6893,"MEAN_ANOMALY":1.3626,"EPHEMERIS_TYPE":0,"CLASSIFICATION_TYPE":"U","NORAD_CAT_ID":31814,"ELEMENT_SET_NO":999,"REV_AT_EPOCH":62955,"BSTAR":0.00063922457,"MEAN_MOTION_DOT":5.9e-6,"MEAN_MOTION_DDOT":0},{"OBJECT_NAME":"FENGYUN 1C DEB","OBJECT_ID":"1999-025CHD","EPOCH":"2026-03-15T04:43:00.035616","MEAN_MOTION":14.10303521,"ECCENTRICITY":0.00597441,"INCLINATION":98.7794,"RA_OF_ASC_NODE":63.2689,"ARG_OF_PERICENTER":119.0548,"MEAN_ANOMALY":241.6626,"EPHEMERIS_TYPE":0,"CLASSIFICATION_TYPE":"U","NORAD_CAT_ID":31815,"ELEMENT_SET_NO":999,"REV_AT_EPOCH":96842,"BSTAR":6.3463343e-5,"MEAN_MOTION_DOT":7.2e-7,"MEAN_MOTION_DDOT":0},{"OBJECT_NAME":"FENGYUN 1C DEB","OBJECT_ID":"1999-025CHE","EPOCH":"2026-03-14T18:43:03.117216","MEAN_MOTION":13.94445297,"ECCENTRICITY":0.01198156,"INCLINATION":98.9845,"RA_OF_ASC_NODE":190.5897,"ARG_OF_PERICENTER":261.356,"MEAN_ANOMALY":252.4672,"EPHEMERIS_TYPE":0,"CLASSIFICATION_TYPE":"U","NORAD_CAT_ID":31816,"ELEMENT_SET_NO":999,"REV_AT_EPOCH":94976,"BSTAR":0.0013282336,"MEAN_MOTION_DOT":1.835e-5,"MEAN_MOTION_DDOT":0},{"OBJECT_NAME":"FENGYUN 1C DEB","OBJECT_ID":"1999-025CHF","EPOCH":"2026-03-12T20:11:05.438688","MEAN_MOTION":14.67246767,"ECCENTRICITY":0.00604694,"INCLINATION":98.9227,"RA_OF_ASC_NODE":81.0002,"ARG_OF_PERICENTER":156.3243,"MEAN_ANOMALY":204.0762,"EPHEMERIS_TYPE":0,"CLASSIFICATION_TYPE":"U","NORAD_CAT_ID":31817,"ELEMENT_SET_NO":999,"REV_AT_EPOCH":72726,"BSTAR":0.001137904,"MEAN_MOTION_DOT":6.535e-5,"MEAN_MOTION_DDOT":0},{"OBJECT_NAME":"FENGYUN 1C DEB","OBJECT_ID":"1999-025CHH","EPOCH":"2026-02-28T22:28:03.804096","MEAN_MOTION":14.3034779,"ECCENTRICITY":0.0088478,"INCLINATION":98.4816,"RA_OF_ASC_NODE":54.245,"ARG_OF_PERICENTER":89.1467,"MEAN_ANOMALY":271.9852,"EPHEMERIS_TYPE":0,"CLASSIFICATION_TYPE":"U","NORAD_CAT_ID":31819,"ELEMENT_SET_NO":999,"REV_AT_EPOCH":97811,"BSTAR":0.00036713,"MEAN_MOTION_DOT":9.53e-6,"MEAN_MOTION_DDOT":0},{"OBJECT_NAME":"FENGYUN 1C DEB","OBJECT_ID":"1999-025CHJ","EPOCH":"2026-03-14T05:35:19.407264","MEAN_MOTION":14.95889405,"ECCENTRICITY":0.01410763,"INCLINATION":98.9663,"RA_OF_ASC_NODE":262.0136,"ARG_OF_PERICENTER":77.2337,"MEAN_ANOMALY":284.4604,"EPHEMERIS_TYPE":0,"CLASSIFICATION_TYPE":"U","NORAD_CAT_ID":31820,"ELEMENT_SET_NO":999,"REV_AT_EPOCH":99622,"BSTAR":0.0013053281,"MEAN_MOTION_DOT":0.00017809,"MEAN_MOTION_DDOT":0},{"OBJECT_NAME":"FENGYUN 1C DEB","OBJECT_ID":"1999-025CHK","EPOCH":"2026-03-14T15:17:48.526944","MEAN_MOTION":14.45489778,"ECCENTRICITY":0.02109665,"INCLINATION":98.1574,"RA_OF_ASC_NODE":319.8614,"ARG_OF_PERICENTER":93.2819,"MEAN_ANOMALY":269.2531,"EPHEMERIS_TYPE":0,"CLASSIFICATION_TYPE":"U","NORAD_CAT_ID":31821,"ELEMENT_SET_NO":999,"REV_AT_EPOCH":94987,"BSTAR":0.006623609,"MEAN_MOTION_DOT":0.0003082,"MEAN_MOTION_DDOT":0},{"OBJECT_NAME":"FENGYUN 1C DEB","OBJECT_ID":"1999-025CHM","EPOCH":"2026-03-14T02:28:41.265696","MEAN_MOTION":14.68416958,"ECCENTRICITY":0.00330016,"INCLINATION":99.5033,"RA_OF_ASC_NODE":178.7891,"ARG_OF_PERICENTER":296.3556,"MEAN_ANOMALY":63.4257,"EPHEMERIS_TYPE":0,"CLASSIFICATION_TYPE":"U","NORAD_CAT_ID":31823,"ELEMENT_SET_NO":999,"REV_AT_EPOCH":98057,"BSTAR":0.0023399666,"MEAN_MOTION_DOT":0.0001361,"MEAN_MOTION_DDOT":0},{"OBJECT_NAME":"FENGYUN 1C DEB","OBJECT_ID":"1999-025CHP","EPOCH":"2026-03-15T05:37:37.345728","MEAN_MOTION":14.21919753,"ECCENTRICITY":0.01665639,"INCLINATION":98.5956,"RA_OF_ASC_NODE":76.4706,"ARG_OF_PERICENTER":69.8105,"MEAN_ANOMALY":292.09,"EPHEMERIS_TYPE":0,"CLASSIFICATION_TYPE":"U","NORAD_CAT_ID":31825,"ELEMENT_SET_NO":999,"REV_AT_EPOCH":96936,"BSTAR":0.00056684916,"MEAN_MOTION_DOT":1.398e-5,"MEAN_MOTION_DDOT":0},{"OBJECT_NAME":"FENGYUN 1C DEB","OBJECT_ID":"1999-025CHQ","EPOCH":"2026-03-15T05:15:01.156032","MEAN_MOTION":14.19491019,"ECCENTRICITY":0.01226369,"INCLINATION":98.6365,"RA_OF_ASC_NODE":67.9887,"ARG_OF_PERICENTER":283.0952,"MEAN_ANOMALY":139.2005,"EPHEMERIS_TYPE":0,"CLASSIFICATION_TYPE":"U","NORAD_CAT_ID":31826,"ELEMENT_SET_NO":999,"REV_AT_EPOCH":97126,"BSTAR":0.00039656831,"MEAN_MOTION_DOT":8.56e-6,"MEAN_MOTION_DDOT":0},{"OBJECT_NAME":"FENGYUN 1C DEB","OBJECT_ID":"1999-025CHT","EPOCH":"2026-03-13T06:28:29.253792","MEAN_MOTION":13.88779623,"ECCENTRICITY":0.01678698,"INCLINATION":98.8453,"RA_OF_ASC_NODE":242.4811,"ARG_OF_PERICENTER":277.7444,"MEAN_ANOMALY":208.1648,"EPHEMERIS_TYPE":0,"CLASSIFICATION_TYPE":"U","NORAD_CAT_ID":31829,"ELEMENT_SET_NO":999,"REV_AT_EPOCH":95404,"BSTAR":0.00040955706,"MEAN_MOTION_DOT":5.1e-6,"MEAN_MOTION_DDOT":0},{"OBJECT_NAME":"FENGYUN 1C DEB","OBJECT_ID":"1999-025CHU","EPOCH":"2026-03-13T17:58:25.954464","MEAN_MOTION":13.83915278,"ECCENTRICITY":0.01836031,"INCLINATION":99.1591,"RA_OF_ASC_NODE":181.1643,"ARG_OF_PERICENTER":72.4255,"MEAN_ANOMALY":84.5974,"EPHEMERIS_TYPE":0,"CLASSIFICATION_TYPE":"U","NORAD_CAT_ID":31830,"ELEMENT_SET_NO":999,"REV_AT_EPOCH":93998,"BSTAR":0.0014783221,"MEAN_MOTION_DOT":1.827e-5,"MEAN_MOTION_DDOT":0},{"OBJECT_NAME":"FENGYUN 1C DEB","OBJECT_ID":"1999-025CHY","EPOCH":"2026-03-14T08:21:54.226656","MEAN_MOTION":14.03285432,"ECCENTRICITY":0.01610586,"INCLINATION":98.3618,"RA_OF_ASC_NODE":291.26,"ARG_OF_PERICENTER":177.8243,"MEAN_ANOMALY":182.3661,"EPHEMERIS_TYPE":0,"CLASSIFICATION_TYPE":"U","NORAD_CAT_ID":31834,"ELEMENT_SET_NO":999,"REV_AT_EPOCH":64995,"BSTAR":0.00012346145,"MEAN_MOTION_DOT":1.78e-6,"MEAN_MOTION_DDOT":0},{"OBJECT_NAME":"FENGYUN 1C DEB","OBJECT_ID":"1999-025CJA","EPOCH":"2026-03-14T09:00:03.799008","MEAN_MOTION":14.10825699,"ECCENTRICITY":0.0110039,"INCLINATION":98.6198,"RA_OF_ASC_NODE":39.7321,"ARG_OF_PERICENTER":216.8976,"MEAN_ANOMALY":142.4589,"EPHEMERIS_TYPE":0,"CLASSIFICATION_TYPE":"U","NORAD_CAT_ID":31836,"ELEMENT_SET_NO":999,"REV_AT_EPOCH":62695,"BSTAR":0.0015717078,"MEAN_MOTION_DOT":2.937e-5,"MEAN_MOTION_DDOT":0},{"OBJECT_NAME":"FENGYUN 1C DEB","OBJECT_ID":"1999-025CJB","EPOCH":"2026-03-14T11:33:28.879200","MEAN_MOTION":14.84510501,"ECCENTRICITY":0.00907154,"INCLINATION":98.0881,"RA_OF_ASC_NODE":155.2476,"ARG_OF_PERICENTER":80.0615,"MEAN_ANOMALY":281.0823,"EPHEMERIS_TYPE":0,"CLASSIFICATION_TYPE":"U","NORAD_CAT_ID":31837,"ELEMENT_SET_NO":999,"REV_AT_EPOCH":99719,"BSTAR":0.0012449681,"MEAN_MOTION_DOT":0.00011246,"MEAN_MOTION_DDOT":0},{"OBJECT_NAME":"FENGYUN 1C DEB","OBJECT_ID":"1999-025CJF","EPOCH":"2026-03-02T04:56:32.847936","MEAN_MOTION":14.0461496,"ECCENTRICITY":0.03053492,"INCLINATION":98.4239,"RA_OF_ASC_NODE":229.3066,"ARG_OF_PERICENTER":80.3605,"MEAN_ANOMALY":94.4415,"EPHEMERIS_TYPE":0,"CLASSIFICATION_TYPE":"U","NORAD_CAT_ID":31841,"ELEMENT_SET_NO":999,"REV_AT_EPOCH":60454,"BSTAR":0.0017134601,"MEAN_MOTION_DOT":4.12e-5,"MEAN_MOTION_DDOT":0},{"OBJECT_NAME":"FENGYUN 1C DEB","OBJECT_ID":"1999-025CJH","EPOCH":"2026-03-12T01:00:29.269152","MEAN_MOTION":13.34942839,"ECCENTRICITY":0.06342992,"INCLINATION":99.2887,"RA_OF_ASC_NODE":9.1518,"ARG_OF_PERICENTER":133.4643,"MEAN_ANOMALY":232.1073,"EPHEMERIS_TYPE":0,"CLASSIFICATION_TYPE":"U","NORAD_CAT_ID":31843,"ELEMENT_SET_NO":999,"REV_AT_EPOCH":65887,"BSTAR":0.0018410879,"MEAN_MOTION_DOT":2.924e-5,"MEAN_MOTION_DDOT":0},{"OBJECT_NAME":"FENGYUN 1C DEB","OBJECT_ID":"1999-025CJJ","EPOCH":"2026-03-10T10:59:58.860960","MEAN_MOTION":14.20123116,"ECCENTRICITY":0.01034771,"INCLINATION":100.3079,"RA_OF_ASC_NODE":77.4173,"ARG_OF_PERICENTER":110.7404,"MEAN_ANOMALY":250.4893,"EPHEMERIS_TYPE":0,"CLASSIFICATION_TYPE":"U","NORAD_CAT_ID":31844,"ELEMENT_SET_NO":999,"REV_AT_EPOCH":96577,"BSTAR":0.00089968907,"MEAN_MOTION_DOT":1.968e-5,"MEAN_MOTION_DDOT":0},{"OBJECT_NAME":"FENGYUN 1C DEB","OBJECT_ID":"1999-025CJU","EPOCH":"2026-03-15T05:28:23.101824","MEAN_MOTION":14.03217049,"ECCENTRICITY":0.00711037,"INCLINATION":98.8511,"RA_OF_ASC_NODE":79.885,"ARG_OF_PERICENTER":242.7881,"MEAN_ANOMALY":116.6028,"EPHEMERIS_TYPE":0,"CLASSIFICATION_TYPE":"U","NORAD_CAT_ID":31854,"ELEMENT_SET_NO":999,"REV_AT_EPOCH":70569,"BSTAR":0.00056227679,"MEAN_MOTION_DOT":8.53e-6,"MEAN_MOTION_DDOT":0},{"OBJECT_NAME":"FENGYUN 1C DEB","OBJECT_ID":"1999-025CJX","EPOCH":"2026-03-06T05:44:50.910432","MEAN_MOTION":13.62260171,"ECCENTRICITY":0.03108978,"INCLINATION":96.1858,"RA_OF_ASC_NODE":69.4741,"ARG_OF_PERICENTER":50.0302,"MEAN_ANOMALY":312.7714,"EPHEMERIS_TYPE":0,"CLASSIFICATION_TYPE":"U","NORAD_CAT_ID":31857,"ELEMENT_SET_NO":999,"REV_AT_EPOCH":62766,"BSTAR":0.0026402974,"MEAN_MOTION_DOT":2.806e-5,"MEAN_MOTION_DDOT":0},{"OBJECT_NAME":"FENGYUN 1C DEB","OBJECT_ID":"1999-025CKB","EPOCH":"2026-03-14T10:59:45.662496","MEAN_MOTION":13.30728838,"ECCENTRICITY":0.04937895,"INCLINATION":102.3444,"RA_OF_ASC_NODE":289.4479,"ARG_OF_PERICENTER":5.7393,"MEAN_ANOMALY":354.9106,"EPHEMERIS_TYPE":0,"CLASSIFICATION_TYPE":"U","NORAD_CAT_ID":31861,"ELEMENT_SET_NO":999,"REV_AT_EPOCH":67987,"BSTAR":0.0022339106,"MEAN_MOTION_DOT":2.018e-5,"MEAN_MOTION_DDOT":0},{"OBJECT_NAME":"FENGYUN 1C DEB","OBJECT_ID":"1999-025CKC","EPOCH":"2026-03-14T16:43:32.996352","MEAN_MOTION":15.04404324,"ECCENTRICITY":0.00982542,"INCLINATION":98.9908,"RA_OF_ASC_NODE":163.7172,"ARG_OF_PERICENTER":339.5209,"MEAN_ANOMALY":20.2085,"EPHEMERIS_TYPE":0,"CLASSIFICATION_TYPE":"U","NORAD_CAT_ID":31877,"ELEMENT_SET_NO":999,"REV_AT_EPOCH":422,"BSTAR":0.0010259188,"MEAN_MOTION_DOT":0.00015889,"MEAN_MOTION_DDOT":0},{"OBJECT_NAME":"FENGYUN 1C DEB","OBJECT_ID":"1999-025CKD","EPOCH":"2026-02-28T13:50:26.166336","MEAN_MOTION":14.88090782,"ECCENTRICITY":0.00820173,"INCLINATION":99.4445,"RA_OF_ASC_NODE":2.7077,"ARG_OF_PERICENTER":355.7359,"MEAN_ANOMALY":4.3144,"EPHEMERIS_TYPE":0,"CLASSIFICATION_TYPE":"U","NORAD_CAT_ID":31878,"ELEMENT_SET_NO":999,"REV_AT_EPOCH":99250,"BSTAR":0.001844343,"MEAN_MOTION_DOT":0.00018017,"MEAN_MOTION_DDOT":0}]
